STARLINK-30144
1 56835U 23079N   26061.00002314  .00012387  00000+0  46846-3 0  9994
2 56835  42.9999 147.0854 0001097 275.3290  26.8275 15.26897991  5748
STARLINK-31002
1 58495U 23186Y   26061.16668981  .00677548  00000+0  23576-1 0  9991
2 58495  42.9999 106.3648 0000886 136.2550 195.2046 15.26822359  5675
STARLINK-30257
1 57526U 23115F   26061.16668981 -.00076052  00000+0 -28514-2 0  9990
2 57526  43.0035  44.1817 0001326 275.8676 307.8627 15.26778548  5764
STARLINK-30991
1 58484U 23186M   26061.18770220  .00019127  00000+0  72009-3 0  9991
2 58484  43.0040 105.5990 0001220 259.8097 100.2617 15.26777177124730
STARLINK-30558
1 58060U 23158K   26061.07931714 -.00007304  00000+0 -26261-3 0  9990
2 58060  43.0020  70.2197 0001308 268.2974  91.7727 15.26772475132405
STARLINK-30758
1 58133U 23162R   26061.02383166  .00006806  00000+0  26292-3 0  9991
2 58133  43.0011 172.4629 0001168 260.6966  99.3754 15.26770842131175
STARLINK-31011
1 58517U 23191K   26061.00002314 -.00006403  00000+0 -22902-3 0  9999
2 58517  43.0009 146.4138 0001361 272.0143 335.9471 15.26767395  5638
STARLINK-30376
1 57782U 23134M   26061.16668981 -.00024143  00000+0 -89259-3 0  9993
2 57782  42.9995 236.6580 0001498 281.8193 304.2324 15.26765699  5765
STARLINK-30585
1 58063U 23158N   26061.16668981 -.00001176  00000+0 -34132-4 0  9994
2 58063  43.0000  69.5763 0001162 248.6562 300.5766 15.26764356  5816
STARLINK-30575
1 58052U 23158B   26061.16668981 -.00023016  00000+0 -85043-3 0  9995
2 58052  43.0012  69.8756 0001844 257.8438 167.6986 15.26760710  5774
STARLINK-30993
1 58489U 23186S   26061.15782725  .00008467  00000+0  32478-3 0  9997
2 58489  43.0019 106.2373 0001642 264.1689  95.8975 15.26760677124731
STARLINK-30587
1 58064U 23158P   26061.04272191 -.00001106  00000+0 -31532-4 0  9990
2 58064  42.9999  69.9613 0001450 240.8127 119.2580 15.26760139132401
STARLINK-30978
1 58490U 23186T   26061.14531044  .00005317  00000+0  20762-3 0  9998
2 58490  42.9993 106.1445 0001102 269.2511  90.8214 15.26759634124734
STARLINK-30844
1 58403U 23180B   26061.10808100  .00005863  00000+0  22794-3 0  9995
2 58403  42.9992  95.6139 0001176 266.5129  93.5588 15.26759568126344
STARLINK-30506
1 58072U 23158X   26061.16668981 -.00035794  00000+0 -13304-2 0  9993
2 58072  43.0022  69.6470 0001629 248.5824 265.9181 15.26759373  5823
STARLINK-30579
1 58061U 23158L   26061.02129296  .00001486  00000+0  65050-4 0  9993
2 58061  43.0035  44.4928 0001603 270.6359  89.4309 15.26756799132691
STARLINK-30876
1 58404U 23180C   26061.10444521  .00004896  00000+0  19201-3 0  9993
2 58404  43.0015  95.5864 0001866 274.5950  85.4688 15.26754960126469
STARLINK-30566
1 58054U 23158D   26061.04557979 -.00057503  00000+0 -21497-2 0  9998
2 58054  42.9949  69.9836 0001519 150.6517 209.4419 15.26754518132406
STARLINK-30382
1 57786U 23134R   26061.16668981 -.00031498  00000+0 -11690-2 0  9991
2 57786  42.9987 236.5800 0001449 270.6572 348.2536 15.26754178  5760
STARLINK-30130
1 56697U 23067K   26061.04383296  .00001239  00000+0  55837-4 0  9997
2 56697  43.0007 313.9831 0001431 267.5910  92.4777 15.26753762154275
STARLINK-30952
1 58405U 23180D   26061.16065808 -.00000255  00000+0  19033-6 0  9999
2 58405  43.0018  95.1443 0001227 238.6020 121.4711 15.26752641126363
STARLINK-30582
1 58059U 23158J   26061.03177779  .00002961  00000+0  11999-3 0  9991
2 58059  43.0047  69.8840 0001379 272.3556  87.7137 15.26752122132408
STARLINK-30369
1 57781U 23134L   26061.16668981 -.00017227  00000+0 -63378-3 0  9991
2 57781  42.9996 236.8186 0001656 288.1508 225.6924 15.26751995  5817
STARLINK-30791
1 58177U 23167C   26061.16668981  .00028409  00000+0  10643-2 0  9995
2 58177  43.0004 185.3745 0001015 278.1861 327.3165 15.26750541  5675
STARLINK-30899
1 58420U 23180U   26061.12988629  .00008976  00000+0  34379-3 0  9991
2 58420  42.9968  94.9127 0001329 278.0993  81.9707 15.26750217126359
STARLINK-30568
1 58051U 23158A   26061.16668981 -.00012465  00000+0 -45566-3 0  9996
2 58051  43.0010  69.9125 0001547 263.7710 144.9243 15.26748752  5823
STARLINK-30053
1 56700U 23067N   26061.06394380  .00005175  00000+0  20240-3 0  9992
2 56700  42.9982 314.1393 0000893 267.2548  92.8201 15.26748423154534
STARLINK-30604
1 58075U 23160A   26061.16668981  .00025527  00000+0  95781-3 0  9990
2 58075  42.9998 120.1151 0000881 260.4310 268.4621 15.26748142  5815
STARLINK-30532
1 58070U 23158V   26061.16668981 -.00006619  00000+0 -23724-3 0  9993
2 58070  42.9997  69.4689 0001363 262.2418 331.2833 15.26748129  5768
STARLINK-30388
1 57784U 23134P   26061.16668981 -.00011728  00000+0 -42812-3 0  9994
2 57784  42.9995 236.7356 0001239 283.6022 269.4061 15.26747826  5765
STARLINK-30984
1 58480U 23186H   26061.18964192  .00001564  00000+0  67965-4 0  9992
2 58480  43.0071 105.6189 0001833 286.5191  73.5459 15.26747763124759
STARLINK-30588
1 58062U 23158M   26061.16668981 -.00005713  00000+0 -20340-3 0  9999
2 58062  42.9998  69.4164 0001135 270.1940 346.4010 15.26747651  5767
STARLINK-31066
1 58676U 23211K   26060.85788960  .00002110  00000+0  88314-4 0  9997
2 58676  43.0012 275.2384 0002048 262.9729  97.0889 15.26745561120833
STARLINK-30810
1 58178U 23167D   26061.05820964 -.00000612  00000+0 -13149-4 0  9999
2 58178  42.9958 186.0174 0000155  32.2417 327.8444 15.26745270129828
STARLINK-30541
1 58057U 23158G   26061.04463233  .00001997  00000+0  84108-4 0  9994
2 58057  43.0006  69.9791 0000830 280.9076  79.1682 15.26744830132407
STARLINK-30964
1 58402U 23180A   26061.14997145  .00001186  00000+0  53865-4 0  9994
2 58402  43.0005  95.0598 0001251 250.5065 109.5652 15.26744356126472
STARLINK-30757
1 58131U 23162P   26060.36517048  .00002662  00000+0  10888-3 0  9993
2 58131  42.9982 176.1197 0001019 270.9251  89.1484 15.26744254131079
STARLINK-30967
1 58416U 23180Q   26061.08862961  .00001604  00000+0  69464-4 0  9996
2 58416  43.0034  95.4499 0001303 263.6145  96.4558 15.26743506126469
STARLINK-30900
1 58423U 23180X   26061.14472126  .00002638  00000+0  10797-3 0  9993
2 58423  43.0042  94.9663 0001679 272.6818  87.3841 15.26742403126364
STARLINK-30270
1 57530U 23115K   26061.16668981 -.00006576  00000+0 -23567-3 0  9993
2 57530  43.0006  43.7515 0001419 266.3689 135.6128 15.26741676  5775
STARLINK-30787
1 58128U 23162L   26061.03196078  .00001772  00000+0  75741-4 0  9991
2 58128  43.0006 172.5266 0001448 259.5461 100.5227 15.26741532131173
STARLINK-30505
1 57972U 23151J   26061.16668981  .00017394  00000+0  65656-3 0  9996
2 57972  43.0004  18.6565 0001756 264.5171 100.0048 15.26741010  5767
STARLINK-30919
1 58411U 23180K   26061.16668981  .00007591  00000+0  29238-3 0  9991
2 58411  43.0000  94.5593 0001342 257.4854 337.1020 15.26740721  5778
STARLINK-30259
1 57521U 23115A   26061.00002314  .00013611  00000+0  51616-3 0  9990
2 57521  43.0000  44.9725 0001325 255.0528 183.5313 15.26739065  5797
STARLINK-30986
1 58492U 23186V   26061.13920499  .00000337  00000+0  22258-4 0  9995
2 58492  42.9991 106.0968 0001568 290.4725  69.5958 15.26738891124732
STARLINK-30902
1 58421U 23180V   26061.16668981  .00004609  00000+0  18139-3 0  9997
2 58421  43.0007  94.9479 0001314 270.4059 188.8605 15.26737791  5766
STARLINK-31005
1 58486U 23186P   26061.16005249  .00000199  00000+0  17088-4 0  9999
2 58486  42.9978 106.2523 0001202 262.7035  97.3679 15.26737748124739
STARLINK-30553
1 58056U 23158F   26061.05090903 -.00004095  00000+0 -14307-3 0  9991
2 58056  43.0021  70.0237 0002131 287.6037  72.4581 15.26734482132404
STARLINK-30521
1 57966U 23151C   26061.16668981  .00018874  00000+0  71160-3 0  9990
2 57966  43.0009  18.2475 0001690 269.2518 273.8190 15.26734301  5824
STARLINK-30251
1 57532U 23115M   26061.16668981 -.00007347  00000+0 -26451-3 0  9997
2 57532  43.0005  43.7770 0001550 264.7309 123.1439 15.26733740  5822
STARLINK-30798
1 58196U 23167X   26061.16668981  .00027107  00000+0  10167-2 0  9991
2 58196  43.0001 186.0599 0000833 267.2206  50.9122 15.26733619  5766
STARLINK-30260
1 57524U 23115D   26061.16668981  .00001465  00000+0  64282-4 0  9996
2 57524  42.9998  44.0633 0001371 269.4206   0.7459 15.26733121  5660
STARLINK-30091
1 57463U 23107G   26061.16668981  .00017812  00000+0  67225-3 0  9991
2 57463  43.0003  18.3030 0001262 269.2766 316.1228 15.26731898  5762
STARLINK-30077
1 57460U 23107D   26061.16668981  .00018734  00000+0  70648-3 0  9995
2 57460  43.0001  18.2230 0001289 269.4045 350.7718 15.26731769  5810
STARLINK-30767
1 58126U 23162J   26061.03174747  .00010320  00000+0  39397-3 0  9993
2 58126  43.0033 172.5269 0001809 255.4007 104.6643 15.26731098131179
STARLINK-30755
1 58186U 23167M   26061.16668981  .00024008  00000+0  90202-3 0  9996
2 58186  43.0017 185.6136 0001360 257.4213 249.6216 15.26730786  5762
STARLINK-30502
1 57973U 23151K   26061.16668981  .00012739  00000+0  48392-3 0  9993
2 57973  43.0015  18.3775 0001715 262.8979 220.3098 15.26729975  5826
STARLINK-30318
1 57711U 23129P   26061.16668981  .00010992  00000+0  41898-3 0  9991
2 57711  43.0042 160.0156 0001185 263.8057 190.7757 15.26729895  5714
STARLINK-30266
1 57529U 23115J   26061.16668981  .00007225  00000+0  27886-3 0  9999
2 57529  43.0036  43.8528 0001470 269.9567  84.3290 15.26729361  5713
STARLINK-30826
1 58188U 23167P   26061.16668981  .00054732  00000+0  20356-2 0  9997
2 58188  43.0012 185.8295 0001701 262.8968 151.1274 15.26729248  5765
STARLINK-30495
1 57968U 23151E   26061.16668981  .00011774  00000+0  44806-3 0  9991
2 57968  43.0013  18.4420 0002111 268.3717 191.9916 15.26729213  5814
STARLINK-30954
1 58407U 23180F   26061.14213509  .00003303  00000+0  13281-3 0  9994
2 58407  43.0013  95.0003 0001451 271.0735  88.9950 15.26727874126478
STARLINK-30597
1 58078U 23160D   26061.16668981  .00028570  00000+0  10711-2 0  9993
2 58078  42.9999 120.0012 0000821 268.9781 300.0577 15.26727547  5766
STARLINK-31028
1 58516U 23191J   26061.16668981  .00047366  00000+0  17650-2 0  9997
2 58516  43.0006 145.4818 0001548 267.9740 171.3031 15.26724590  5613
